{
  "norad_id": 59081,
  "name": "STARLINK-31292",
  "history": [
    {
      "epoch": "2026-03-28T17:03:57.338784",
      "apogee_km": 483.69193342287053,
      "perigee_km": 482.34001184114277,
      "latitude_deg": -24.866272672028227,
      "longitude_deg": 156.36370976013131,
      "semi_major_axis_km": 6861.152972632006,
      "eccentricity": 9.852e-05,
      "inclination_deg": 43.0029,
      "raan_deg": 203.0226,
      "arg_perigee_deg": 232.8229,
      "mean_anomaly_deg": 127.2532,
      "mean_motion_rev_day": 15.27591062
    },
    {
      "epoch": "2026-03-29T00:54:46.098720",
      "apogee_km": 483.2517082656768,
      "perigee_km": 482.92923057461394,
      "latitude_deg": -42.798659150790826,
      "longitude_deg": -172.24877919978462,
      "semi_major_axis_km": 6861.227469420145,
      "eccentricity": 2.35e-05,
      "inclination_deg": 43.0038,
      "raan_deg": 201.178,
      "arg_perigee_deg": 23.8868,
      "mean_anomaly_deg": 336.1995,
      "mean_motion_rev_day": 15.27566183
    }
  ]
}